STARLINK-5218           
1 55636U 23021J   26068.71499787  .00000420  00000+0  43023-4 0  9998
2 55636  70.0001 204.3244 0003289 269.5064  90.5718 14.98329838168301
HAWK-9A                 
1 59446U 24066E   26068.43100697  .00002638  00000+0  23459-3 0  9992
2 59446  45.6088  72.7153 0003627 244.6286 115.4219 14.98777479104861
